SAI-1 NANOCONNECT-2     
1 47701U 21015C   23161.86174713  .00045116  00000+0  86070-3 0  9998
2 47701  97.3850 245.0220 0007125 240.8041 119.2496 15.47996294127178
WILDTRACKCUBE-SIMBA     
1 47941U 21022K   23162.60634647  .00008450  00000+0  49165-3 0  9996
2 47941  97.4981  59.7605 0019028   1.1918 358.9355 15.12142995122166
BEESAT-6                
1 47957U 21022AB  23162.44616039  .00018509  00000+0  88527-3 0  9991
2 47957  97.4958  61.3526 0015982 359.5811   0.5407 15.18927501122062
SMOG-1                  
1 47964U 21022AJ  23162.45695505  .00019719  00000+0  89474-3 0  9991
2 47964  97.4996  63.3681 0013872 346.3317  13.7540 15.20761224121207
BCCSAT-1                
1 48041U 21022AK  23162.48042495  .00017433  00000+0  84286-3 0  9992
2 48041  97.4992  62.3267 0011660 347.8919  12.2033 15.18618194121111
BEESAT-5                
1 48083U 21022AM  23162.16241633  .00020434  00000+0  93574-3 0  9993
2 48083  97.4872  61.2577 0015525 359.4205   0.7010 15.20415662121178
BEESAT-7                
1 48084U 21022AN  23162.45136014  .00019552  00000+0  91979-3 0  9998
2 48084  97.4957  61.4699 0015763 359.1225   0.9979 15.19493004120790
BEESAT-8                
1 48085U 21022AP  23162.50362676  .00010661  00000+0  55379-3 0  9996
2 48085  97.5002  61.0277 0017204 359.2631   0.8573 15.16152127121329
LEDSAT                  
1 49069U 21073D   23162.17280373  .00008656  00000+0  47578-3 0  9994
2 49069  97.4820 233.1491 0025361 139.2161 221.0975 15.14050899 99997
ORCASAT                 
1 55126U 98067UT  23162.51932168  .00300058  00000+0  97900-3 0  9991
2 55126  51.6315 337.9056 0004774 247.7131 112.3369 15.89307812 25772
SPORT                   
1 55129U 98067UW  23162.52673798  .00067932  00000+0  59889-3 0  9991
2 55129  51.6341 346.2775 0002951 137.2077 222.9149 15.68076537 25657
HSKSAT                  
1 55182U 98067UZ  23162.32093409  .00314295  00000+0  10341-2 0  9999
2 55182  51.6248 339.5410 0004221 276.4676  83.5849 15.89109152 24443
OPTIMAL-1               
1 55183U 98067VA  23162.53429389  .00129879  00000+0  84437-3 0  9993
2 55183  51.6378 343.3405 0003803 166.0407 194.0698 15.75033024 24412
